ALOS-4 (DAICHI-4)       
1 60182U 24123A   24282.41454565  .00033444  00000+0  44569-2 0  9998
2 60182  97.9211  17.4428 0001367  90.9377 269.1991 14.79532303 14689
